EYESAT-1 (AO-27)        
1 22825U 93061C   17207.86550176 -.00000008  00000-0  14536-4 0  9995
2 22825  98.8153 173.9422 0007754 209.3653 150.7094 14.30001333242804
CUTE-1 (CO-55)          
1 27844U 03031E   17207.96986796  .00000027  00000-0  32137-4 0  9998
2 27844  98.6893 216.3973 0008745 228.0216 132.0218 14.22048953729931
CUBESAT XI-IV (CO-57)   
1 27848U 03031J   17207.69890849  .00000021  00000-0  29415-4 0  9994
2 27848  98.6985 216.4059 0008571 239.1943 120.8391 14.21662442729784
CUBESAT XI 5            
1 28895U 05043F   17207.89919820  .00000083  00000-0  24741-4 0  9990
2 28895  97.8691   8.3688 0017311  22.8108 337.3860 14.63413923626067
CUTE-1.7+APD II (CO-65) 
1 32785U 08021C   17207.78595403  .00000178  00000-0  25045-4 0  9990
2 32785  97.5648 230.2474 0014174  42.7804 317.4513 14.87912564500714
COMPASS-1               
1 32787U 08021E   17207.90291516  .00000566  00000-0  60169-4 0  9991
2 32787  97.5575 239.4753 0012800  13.3666 346.7891 14.92641268501373
AAUSAT-II               
1 32788U 08021F   17207.88641991  .00000205  00000-0  24421-4 0  9996
2 32788  97.5562 242.3707 0011956   6.0171 354.1191 14.93915539501500
DELFI-C3 (DO-64)        
1 32789U 08021G   17207.71941622  .00001270  00000-0  93754-4 0  9991
2 32789  97.5560 265.1142 0011926 332.9056  27.1547 15.04979909502715
CANX-2                  
1 32790U 08021H   17207.84024538  .00000159  00000-0  23108-4 0  9996
2 32790  97.5628 228.6478 0014897  43.8966 316.3432 14.87637055500656
SEEDS II (CO-66)        
1 32791U 08021J   17207.52375266  .00000207  00000-0  26779-4 0  9990
2 32791  97.5614 234.4831 0014154  28.9850 331.2151 14.90255652500929
SWISSCUBE               
1 35932U 09051B   17207.85650490  .00000107  00000-0  35122-4 0  9996
2 35932  98.5012 347.0816 0008771 124.9143 235.2880 14.56029091416056
BEESAT                  
1 35933U 09051C   17207.83959814  .00000074  00000-0  27735-4 0  9991
2 35933  98.5050 348.4008 0006798 135.0023 225.1725 14.56146825416112
ITUPSAT 1               
1 35935U 09051E   17207.84966492  .00000066  00000-0  26201-4 0  9992
2 35935  98.5161 348.6652 0009181 131.3704 228.8283 14.55339185415972
TISAT 1                 
1 36799U 10035E   17207.82175972  .00000433  00000-0  50516-4 0  9992
2 36799  98.0664 331.3612 0012214 190.5727 169.5235 14.90429179381682
M-CUBED & EXP-1 PRIME   
1 37855U 11061F   17207.73462519  .00000809  00000-0  50556-4 0  9993
2 37855 101.7104  99.2535 0180361 324.7802  34.1595 15.03175987312269
HORYU 2                 
1 38340U 12025D   17207.96612007  .00000148  00000-0  29915-4 0  9999
2 38340  98.3767 213.2898 0012076 159.3237 200.8462 14.75360271268744
STRAND-1                
1 39090U 13009E   17207.55776976  .00000022  00000-0  23272-4 0  9997
2 39090  98.5512  52.6198 0009160 176.1468 183.9789 14.34975115231105
BRITE-AUSTRIA           
1 39091U 13009F   17207.64005775 -.00000015  00000-0  99641-5 0  9997
2 39091  98.5475  52.0756 0010320 184.6010 175.5082 14.35034380231143
UNIBRITE                
1 39092U 13009G   17207.92179073 -.00000008  00000-0  12592-4 0  9993
2 39092  98.5485  52.0413 0009352 176.3468 183.7787 14.34909032231162
AIST-2                  
1 39133U 13015D   17207.85772215  .00000061  00000-0  17078-4 0  9997
2 39133  64.8729 160.1844 0038175 275.5373  84.1393 15.04309386234261
SOMP                    
1 39134U 13015E   17207.81535036  .00000723  00000-0  44876-4 0  9993
2 39134  64.8646  98.5410 0037649 258.4472 101.2427 15.17899177235118
BEESAT-2                
1 39136U 13015G   17207.84552905  .00000545  00000-0  39041-4 0  9992
2 39136  64.8702 109.6872 0033512 277.8971  81.8351 15.15169757234898
NEE-01 PEGASUS          
1 39151U 13018B   17207.93099001  .00000122  00000-0  23340-4 0  9991
2 39151  97.9841 299.2008 0015722 282.5117  77.4335 14.79734122229408
CUBEBUG-1 (CAPITAN BETO)
1 39153U 13018D   17207.70575680  .00000132  00000-0  24432-4 0  9994
2 39153  97.9864 299.7933 0015604 281.3681  78.5778 14.80197525229437
ESTCUBE 1               
1 39161U 13021C   17207.76322695  .00000124  00000-0  27698-4 0  9997
2 39161  98.0287 293.2513 0010072  25.5956 334.5748 14.71912847226573
POPACS 1                
1 39268U 13055D   17207.37734103  .00005364  00000-0  15190-3 0  9994
2 39268  81.0059 327.2884 0650884 104.7059 262.7154 14.31293062196323
POPACS 2                
1 39269U 13055E   17207.80668866  .00004683  00000-0  13677-3 0  9996
2 39269  81.0180 342.3741 0700782 143.9833 221.0748 14.20125193196927
POPACS 3                
1 39270U 13055F   17207.83780842  .00002805  00000-0  88198-4 0  9995
2 39270  81.0180 350.8414 0725197 169.6983 192.0026 14.13286138175672
FIREFLY                 
1 39404U 13064AA  17207.88127142  .00043037  00000-0  23000-3 0  9999
2 39404  40.4973  51.7955 0009046 337.1779  22.8647 15.79443262203936
ZACUBE-1 (TSHEPISOSAT)  
1 39417U 13066B   17207.82757406  .00000177  00000-0  28846-4 0  9993
2 39417  97.6265 248.1428 0060415 139.2457 221.3299 14.80729999198641
WNISAT-1                
1 39423U 13066H   17207.80283827  .00000043  00000-0  18670-4 0  9995
2 39423  97.6847 192.8994 0174827 314.7224  43.9847 14.52854930194985
TRITON-1                
1 39427U 13066M   17207.80610959  .00000147  00000-0  31734-4 0  9990
2 39427  97.6372 220.5084 0113275 221.2814 137.9787 14.67477920196668
GOMX 1                  
1 39430U 13066Q   17207.95217334  .00000129  00000-0  32978-4 0  9991
2 39430  97.6662 203.9603 0150347 277.5872  80.8274 14.58888342195542
BRITE-PL                
1 39431U 13066R   17207.88349515  .00000053  00000-0  21666-4 0  9999
2 39431  97.7092 182.1240 0202539 353.2775   6.5709 14.46853820194199
HUMSAT-D                
1 39433U 13066T   17207.90500195  .00000396  00000-0  44708-4 0  9999
2 39433  97.6498 269.8476 0032778  85.6200 274.8763 14.91472117198751
EAGLE 2                 
1 39436U 13066W   17207.75606703  .00017172  00000-0  45269-3 0  9999
2 39436  97.7109 315.6760 0009082 299.9426  60.0916 15.38538323201587
CUBEBUG-2 (LO-74)       
1 39440U 13066AA  17207.64649693  .00000167  00000-0  30440-4 0  9999
2 39440  97.6265 236.8387 0081047 171.2981 188.9657 14.75470091196719
NEE-02 KRYSAOR          
1 39441U 13066AB  17207.54048281  .00000109  00000-0  22674-4 0  9991
2 39441  97.6247 235.3906 0082294 175.3433 184.8561 14.74632513197788
FUNCUBE-1 (AO-73)       
1 39444U 13066AE  17207.92267496  .00000222  00000-0  33893-4 0  9998
2 39444  97.6281 249.3380 0059679 135.6099 224.9922 14.81467802196903
UWE-3                   
1 39446U 13066AG  17207.54974733  .00000169  00000-0  29310-4 0  9996
2 39446  97.6255 242.0171 0071129 156.1199 204.3339 14.78003544196423
BRITE-TORONTO           
1 40020U 14033L   17207.88560776  .00000086  00000-0  23318-4 0  9996
2 40020  97.8306  76.8728 0087059 199.8429 159.9382 14.66402024165907
DUCHIFAT-1              
1 40021U 14033M   17207.72123761  .00000331  00000-0  40291-4 0  9991
2 40021  97.9162 120.9419 0013260 164.6951 195.4670 14.89922512168485
FLOCK 1C-10             
1 40023U 14033P   17207.71770335  .00000394  00000-0  48159-4 0  9997
2 40023  97.9210 119.9612 0012612 170.9978 189.1516 14.88754238168388
NANOSATC-BR1            
1 40024U 14033Q   17207.74125935  .00000225  00000-0  29690-4 0  9993
2 40024  97.9120 119.7872 0012549 165.3462 194.8121 14.89243711168431
QB50P1                  
1 40025U 14033R   17207.74196117  .00000204  00000-0  27991-4 0  9993
2 40025  97.9101 118.7708 0012678 168.5653 191.5853 14.88442971167868
FLOCK 1C-7              
1 40026U 14033S   17207.71501278  .00000336  00000-0  41185-4 0  9996
2 40026  97.9212 120.7318 0011001 168.2733 191.8845 14.89489883168439
FLOCK 1C-1              
1 40027U 14033T   17207.81844814  .00000653  00000-0  75733-4 0  9992
2 40027  97.9201 120.2993 0012470 168.5880 191.5573 14.88819683168416
POPSAT-HIP-1            
1 40028U 14033U   17207.84419869  .00000009  00000-0  70316-5 0  9992
2 40028  97.9145 119.1580 0014010 167.3817 192.7763 14.88309721168378
FLOCK 1C-2              
1 40029U 14033V   17207.71242483  .00000316  00000-0  39732-4 0  9992
2 40029  97.9190 120.0475 0013811 165.7028 194.4646 14.88832457168384
FLOCK 1C-4              
1 40031U 14033X   17207.73277178  .00000717  00000-0  82727-4 0  9993
2 40031  97.9188 120.0455 0014174 163.9487 196.2202 14.88684950168374
QB50P2                  
1 40032U 14033Y   17207.80115002  .00000198  00000-0  27669-4 0  9996
2 40032  97.9072 117.9085 0012224 163.1428 197.0197 14.88000161168336
FLOCK 1C-11             
1 40033U 14033Z   17207.81839156  .00000370  00000-0  44067-4 0  9994
2 40033  97.9215 121.6238 0012346 155.9843 204.1925 14.90189904168495
ANTELSAT                
1 40034U 14033AA  17207.93581373  .00000145  00000-0  29310-4 0  9997
2 40034  97.8540  90.6266 0059303 163.7005 196.6129 14.73716066166241
FLOCK 1C-9              
1 40035U 14033AB  17207.29650350  .00000381  00000-0  46630-4 0  9995
2 40035  97.9226 120.0112 0011956 157.7306 202.4425 14.88888201168324
FLOCK 1C-6              
1 40036U 14033AC  17207.71791638  .00000328  00000-0  40902-4 0  9995
2 40036  97.9251 120.6502 0012008 158.8444 201.3333 14.88994314168404
PERSEUS-M2              
1 40037U 14033AD  17207.78146153  .00000076  00000-0  14920-4 0  9990
2 40037  97.9091 116.3445 0014596 170.2545 189.8956 14.86236651167691
FLOCK 1C-5              
1 40038U 14033AE  17207.79267389  .00000437  00000-0  52420-4 0  9995
2 40038  97.9221 120.5265 0013783 158.4872 201.6939 14.88981603168402
PERSEUS-M1              
1 40039U 14033AF  17207.79123349  .00000093  00000-0  17022-4 0  9990
2 40039  97.9098 115.8978 0014537 166.3801 193.7809 14.85860951168159
FLOCK 1C-8              
1 40040U 14033AG  17207.86610651  .00000875  00000-0  94358-4 0  9992
2 40040  97.9234 122.8256 0013138 146.0191 214.1873 14.90931230168551
